[Satellite]
VERSION=1.1
NAME=SL-14 R/B
NICKNAME=SL-14 R/B
TLE1=1 26874U 01032B   11059.68274722  .00001556  00000-0  42586-4 0  6934
TLE2=2 26874  82.4809 146.0633 0024431  81.2925 279.1119 15.36191146535633
